[{"OBJECT_NAME":"CONNECTA T1.2","OBJECT_ID":"2023-001D","EPOCH":"2026-03-09T17:19:18.981408","MEAN_MOTION":15.44466747,"ECCENTRICITY":0.00081044,"INCLINATION":97.3381,"RA_OF_ASC_NODE":138.0701,"ARG_OF_PERICENTER":103.5122,"MEAN_ANOMALY":256.703,"EPHEMERIS_TYPE":0,"CLASSIFICATION_TYPE":"U","NORAD_CAT_ID":55012,"ELEMENT_SET_NO":999,"REV_AT_EPOCH":17716,"BSTAR":0.00042958738,"MEAN_MOTION_DOT":0.00019849,"MEAN_MOTION_DDOT":0},{"OBJECT_NAME":"JACKAL X-1L-001","OBJECT_ID":"2024-043AF","EPOCH":"2026-03-09T21:53:51.909504","MEAN_MOTION":15.41200084,"ECCENTRICITY":0.00073606,"INCLINATION":97.5425,"RA_OF_ASC_NODE":210.2937,"ARG_OF_PERICENTER":209.2709,"MEAN_ANOMALY":150.8126,"EPHEMERIS_TYPE":0,"CLASSIFICATION_TYPE":"U","NORAD_CAT_ID":59127,"ELEMENT_SET_NO":999,"REV_AT_EPOCH":11224,"BSTAR":0.00050692817,"MEAN_MOTION_DOT":0.00021003,"MEAN_MOTION_DDOT":0}]
